H1 CPF 01  gfz 2021 11 28 01  8321 terrasarx 
H2 0702601  6201 31698    2021 11 28 00 59 42 2021 12 03 00 00 42   120 1 1  0 0 0
H9
10 0 59547  66222.000000  0    -811632.410    969865.385  -6777904.218
10 0 59547  66342.000000  0     101053.051    888670.575  -6836670.277
10 0 59547  66462.000000  0    1010296.002    776146.307  -6776208.341
10 0 59547  66582.000000  0    1899819.494    634441.972  -6597558.014
10 0 59547  66702.000000  0    2753720.886    466491.526  -6303793.724
10 0 59547  66822.000000  0    3556751.372    275956.563  -5899977.330
10 0 59547  66942.000000  0    4294585.364     67151.620  -5393078.884
10 0 59547  67062.000000  0    4954076.224   -155046.263  -4791867.812
10 0 59547  67182.000000  0    5523496.504   -385302.441  -4106772.925
10 0 59547  67302.000000  0    5992754.805   -617942.725  -3349710.846
10 0 59547  67422.000000  0    6353585.361   -847082.165  -2533886.707
10 0 59547  67542.000000  0    6599706.497  -1066762.179  -1673568.376
10 0 59547  67662.000000  0    6726942.485  -1271091.995   -783837.065
10 0 59547  67782.000000  0    6733304.798  -1454391.466    119680.047
10 0 59547  67902.000000  0    6619031.198  -1611331.709   1021090.339
10 0 59547  68022.000000  0    6386579.217  -1737069.913   1904523.826
10 0 59547  68142.000000  0    6040575.436  -1827374.956   2754421.561
10 0 59547  68262.000000  0    5587720.123  -1878739.197   3555818.679
10 0 59547  68382.000000  0    5036650.421  -1888475.190   4294613.842
10 0 59547  68502.000000  0    4397766.814  -1854794.068   4957820.133
10 0 59547  68622.000000  0    3683028.588  -1776863.521   5533793.830
10 0 59547  68742.000000  0    2905720.800  -1654845.431   6012437.745
10 0 59547  68862.000000  0    2080199.089  -1489911.674   6385372.809
10 0 59547  68982.000000  0    1221619.605  -1284238.667   6646078.948
10 0 59547  69102.000000  0     345657.016  -1040979.996   6790003.444
10 0 59547  69222.000000  0    -531783.053   -764217.456   6814634.710
10 0 59547  69342.000000  0   -1394851.785   -458892.355   6719542.283
10 0 59547  69462.000000  0   -2228041.876   -130717.590   6506383.784
10 0 59547  69582.000000  0   -3016464.843    213928.512   6178878.364
10 0 59547  69702.000000  0   -3746117.773    568124.722   5742746.956
10 0 59547  69822.000000  0   -4404135.696    924543.608   5205618.608
10 0 59547  69942.000000  0   -4979024.253   1275600.589   4576903.101
10 0 59547  70062.000000  0   -5460868.550   1613612.998   3867631.183
10 0 59547  70182.000000  0   -5841512.476   1930965.125   3090263.861
10 0 59547  70302.000000  0   -6114705.414   2220276.010   2258474.780
10 0 59547  70422.000000  0   -6276213.451   2474566.128   1386908.273
10 0 59547  70542.000000  0   -6323891.355   2687419.238    490916.072
10 0 59547  70662.000000  0   -6257711.454   2853134.281   -413721.106
10 0 59547  70782.000000  0   -6079750.094   2966863.592  -1311080.307
10 0 59547  70902.000000  0   -5794131.459   3024733.960  -2185385.421
10 0 59547  71022.000000  0   -5406930.109   3023947.937  -3021293.181
10 0 59547  71142.000000  0   -4926034.437   2962861.539  -3804167.611
10 0 59547  71262.000000  0   -4360976.663   2841037.888  -4520337.680
10 0 59547  71382.000000  0   -3722733.902   2659275.495  -5157333.071
10 0 59547  71502.000000  0   -3023506.032   2419611.127  -5704093.895
10 0 59547  71622.000000  0   -2276477.371   2125298.741  -6151152.913
10 0 59547  71742.000000  0   -1495564.242   1780764.102  -6490789.626
10 0 59547  71862.000000  0    -695155.083   1391536.135  -6717151.039
10 0 59547  71982.000000  0     110151.046    964157.469  -6826342.132
10 0 59547  72102.000000  0     905804.168    506075.763  -6816485.240
10 0 59547  72222.000000  0    1677560.531     25516.645  -6687750.935
10 0 59547  72342.000000  0    2411732.450   -468660.902  -6442354.278
10 0 59547  72462.000000  0    3095425.842   -967123.311  -6084521.150
10 0 59547  72582.000000  0    3716764.409  -1460233.931  -5620422.445
10 0 59547  72702.000000  0    4265095.884  -1938234.543  -5058078.691
10 0 59547  72822.000000  0    4731179.231  -2391436.431  -4407232.928
10 0 59547  72942.000000  0    5107346.621  -2810415.339  -3679192.224
10 0 59547  73062.000000  0    5387638.117  -3186206.671  -2886640.445
10 0 59547  73182.000000  0    5567906.103  -3510497.018  -2043422.925
10 0 59547  73302.000000  0    5645884.868  -3775807.141  -1164306.462
10 0 59547  73422.000000  0    5621224.013  -3975662.628   -264719.429
10 0 59547  73542.000000  0    5495483.852  -4104746.841    639523.931
10 0 59547  73662.000000  0    5272092.031  -4159032.934   1532509.251
10 0 59547  73782.000000  0    4956261.431  -4135889.962   2398511.744
10 0 59547  73902.000000  0    4554871.802  -4034159.079   3222281.603
10 0 59547  74022.000000  0    4076319.589  -3854200.273   3989318.894
10 0 59547  74142.000000  0    3530339.459  -3597908.747   4686133.948
10 0 59547  74262.000000  0    2927799.972  -3268699.040   5300486.965
10 0 59547  74382.000000  0    2280481.978  -2871457.976   5821601.436
10 0 59547  74502.000000  0    1600843.086  -2412468.467   6240349.920
10 0 59547  74622.000000  0     901773.862  -1899306.323   6549407.746
10 0 59547  74742.000000  0     196351.214  -1340712.135   6743375.001
10 0 59547  74862.000000  0    -502406.634   -746440.209   6818865.193
10 0 59547  74982.000000  0   -1181779.417   -127087.152   6774560.020
10 0 59547  75102.000000  0   -1829575.272    506096.656   6611230.925
10 0 59547  75222.000000  0   -2434348.731   1141410.748   6331726.611
10 0 59547  75342.000000  0   -2985603.206   1766919.700   5940926.660
10 0 59547  75462.000000  0   -3473974.803   2370676.732   5445662.204
10 0 59547  75582.000000  0   -3891395.453   2940953.024   4854603.327
10 0 59547  75702.000000  0   -4231231.146   3466467.782   4178112.723
10 0 59547  75822.000000  0   -4488393.229   3936614.518   3428068.669
10 0 59547  75942.000000  0   -4659419.736   4341679.018   2617658.419
10 0 59547  76062.000000  0   -4742523.593   4673044.596   1761145.570
10 0 59547  76182.000000  0   -4737606.839   4923378.487    873614.679
10 0 59547  76302.000000  0   -4646241.030   5086793.182    -29300.749
10 0 59547  76422.000000  0   -4471614.714   5158981.226   -931701.353
10 0 59547  76542.000000  0   -4218446.612   5137318.778  -1817713.123
10 0 59547  76662.000000  0   -3892865.925   5020932.666  -2671774.804
10 0 59547  76782.000000  0   -3502267.806   4810733.138  -3478918.051
10 0 59547  76902.000000  0   -3055143.886   4509408.559  -4225032.795
10 0 59547  77022.000000  0   -2560895.162   4121385.324  -4897111.720
10 0 59547  77142.000000  0   -2029632.347   3652755.701  -5483470.516
10 0 59547  77262.000000  0   -1471968.370   3111175.564  -5973943.306
10 0 59547  77382.000000  0    -898806.044   2505732.204  -6360049.564
10 0 59547  77502.000000  0    -321126.117   1846786.632  -6635129.016
10 0 59547  77622.000000  0     250219.542   1145794.876  -6794445.240
10 0 59547  77742.000000  0     804706.570    415110.423  -6835258.996
10 0 59547  77862.000000  0    1332328.063   -332229.575  -6756871.006
10 0 59547  77982.000000  0    1823770.890  -1082732.406  -6560631.143
10 0 59547  78102.000000  0    2270575.859  -1822686.868  -6249917.284
10 0 59547  78222.000000  0    2665281.537  -2538407.440  -5830083.612
10 0 59547  78342.000000  0    3001549.019  -3216483.303  -5308379.576
10 0 59547  78462.000000  0    3274266.862  -3844030.533  -4693835.556
10 0 59547  78582.000000  0    3479630.901  -4408937.947  -3997115.289
10 0 59547  78702.000000  0    3615199.290  -4900103.481  -3230341.504
10 0 59547  78822.000000  0    3679923.175  -5307659.174  -2406893.862
10 0 59547  78942.000000  0    3674148.994  -5623178.066  -1541178.752
10 0 59547  79062.000000  0    3599592.591  -5839855.214   -648377.065
10 0 59547  79182.000000  0    3459285.196  -5952660.248    255826.346
10 0 59547  79302.000000  0    3257491.057  -5958455.100   1155524.842
10 0 59547  79422.000000  0    2999600.982  -5856075.460   2034878.338
10 0 59547  79542.000000  0    2692001.891  -5646370.469   2878402.398
10 0 59547  79662.000000  0    2341926.348  -5332201.619   3671247.946
10 0 59547  79782.000000  0    1957287.515  -4918402.284   4399467.562
10 0 59547  79902.000000  0    1546502.982  -4411697.901   5050264.159
10 0 59547  80022.000000  0    1118312.630  -3820589.178   5612216.178
10 0 59547  80142.000000  0     681592.758  -3155200.518   6075476.624
10 0 59547  80262.000000  0     245172.105  -2427098.125   6431939.248
10 0 59547  80382.000000  0    -182345.360  -1649083.679   6675373.222
10 0 59547  80502.000000  0    -592748.315   -834966.986   6801526.136
10 0 59547  80622.000000  0    -978374.504       680.628   6808194.881
10 0 59547  80742.000000  0   -1332252.944    842787.539   6695261.597
10 0 59547  80862.000000  0   -1648229.456   1676052.983   6464695.285
10 0 59547  80982.000000  0   -1921073.865   2485224.072   6120519.803
10 0 59547  81102.000000  0   -2146567.300   3255375.140   5668747.972
10 0 59547  81222.000000  0   -2321567.835   3972184.540   5117282.424
10 0 59547  81342.000000  0   -2444054.547   4622205.331   4475784.589
10 0 59547  81462.000000  0   -2513148.168   5193124.448   3755510.673
10 0 59547  81582.000000  0   -2529107.770   5674004.352   2969116.948
10 0 59547  81702.000000  0   -2493302.965   6055500.733   2130437.196
10 0 59547  81822.000000  0   -2408162.757   6330052.030   1254237.078
10 0 59547  81942.000000  0   -2277101.408   6492035.822    355949.021
10 0 59547  82062.000000  0   -2104423.447   6537887.808   -548606.825
10 0 59547  82182.000000  0   -1895210.488   6466180.669  -1443510.361
10 0 59547  82302.000000  0   -1655191.398   6277658.329  -2313033.756
10 0 59547  82422.000000  0   -1390599.320   5975221.980  -3141925.307
10 0 59547  82542.000000  0   -1108021.557   5563876.048  -3915678.826
10 0 59547  82662.000000  0    -814245.767   5050634.533  -4620787.860
99
